NORAD_CAT_ID,OBJECT_NAME,OBJECT_TYPE,EPOCH,MEAN_MOTION,ECCENTRICITY,INCLINATION,RA_OF_ASC_NODE,ARG_OF_PERICENTER,MEAN_ANOMALY,BSTAR,MEAN_MOTION_DOT,MEAN_MOTION_DDOT,TLE_LINE0,TLE_LINE1,TLE_LINE2,SEMIMAJOR_AXIS,PERIOD,APOGEE,PERIGEE,DECAYED
55674.0,STARLINK-5462,PAYLOAD,2023-10-07 02:10:35,14.98324917,0.0003108,70.0003,234.6974,268.5461,91.5342,7.9632e-07,-8.4e-07,0.0,0 STARLINK-5462,1 55674U 23021AY  23280.09068679 -.00000084  00000-0  79632-6 0  9991,2 55674  70.0003 234.6974 0003108 268.5461  91.5342 14.98324917 36481,6950.209,96.107,574.234,569.913,0.0
55674.0,STARLINK-5462,PAYLOAD,2023-10-07 06:58:58,14.9833388,0.0003123,70.0003,234.193,268.2717,91.8084,9.5971e-05,1.052e-05,0.0,0 STARLINK-5462,1 55674U 23021AY  23280.29095820  .00001052  00000-0  95971-4 0  9998,2 55674  70.0003 234.1930 0003123 268.2717  91.8084 14.98333880 36515,6950.181,96.107,574.216,569.875,0.0
55674.0,STARLINK-5462,PAYLOAD,2023-10-07 21:24:11,14.9832723,0.0002898,70.0008,232.678,263.6181,96.4648,7.9422e-05,8.55e-06,0.0,0 STARLINK-5462,1 55674U 23021AY  23280.89180249  .00000855  00000-0  79422-4 0  9997,2 55674  70.0008 232.6780 0002898 263.6181  96.4648 14.98327230 36900,6950.201,96.107,574.081,570.052,0.0
55674.0,STARLINK-5462,PAYLOAD,2023-10-08 08:37:07,14.98355096,0.000316,70.0002,231.4999,274.0511,86.0287,-0.00013866,-1.748e-05,0.0,0 STARLINK-5462,1 55674U 23021AY  23281.35910943 -.00001748  00000-0 -13866-3 0  9994,2 55674  70.0002 231.4999 0003160 274.0511  86.0287 14.98355096 36678,6950.115,96.105,574.177,569.784,0.0
55674.0,STARLINK-5462,PAYLOAD,2023-10-08 21:26:12,14.98326815,0.0003209,70.001,230.1534,271.5775,88.5016,5.3715e-05,5.48e-06,0.0,0 STARLINK-5462,1 55674U 23021AY  23281.89320336  .00000548  00000-0  53715-4 0  9997,2 55674  70.0010 230.1534 0003209 271.5775  88.5016 14.98326815 37053,6950.203,96.107,574.298,569.837,0.0
55674.0,STARLINK-5462,PAYLOAD,2023-10-09 02:14:36,14.98335302,0.0002997,70.0007,229.6485,270.1435,89.9381,0.00014567,1.646e-05,0.0,0 STARLINK-5462,1 55674U 23021AY  23282.09347556  .00001646  00000-0  14567-3 0  9994,2 55674  70.0007 229.6485 0002997 270.1435  89.9381 14.98335302 36788,6950.176,96.107,574.124,569.959,0.0
55674.0,STARLINK-5462,PAYLOAD,2023-10-09 13:27:33,14.98333264,0.0002588,70.0019,228.4703,282.666,77.4209,6.2215e-06,-1.9e-07,0.0,0 STARLINK-5462,1 55674U 23021AY  23282.56080033 -.00000019  00000-0  62215-5 0  9999,2 55674  70.0019 228.4703 0002588 282.6660  77.4209 14.98333264 37153,6950.183,96.107,573.847,570.249,0.0
55674.0,STARLINK-5462,PAYLOAD,2023-10-09 21:28:13,14.98330511,0.0003488,70.0008,227.6279,281.457,78.6197,7.1994e-06,-7e-08,0.0,0 STARLINK-5462,1 55674U 23021AY  23282.89460117 -.00000007  00000-0  71994-5 0  9991,2 55674  70.0008 227.6279 0003488 281.4570  78.6197 14.98330511 37204,6950.191,96.107,574.481,569.632,0.0
55674.0,STARLINK-5462,PAYLOAD,2023-10-10 02:16:37,14.98326406,0.0002823,70.0018,227.1251,278.2808,81.8031,2.5881e-05,2.16e-06,0.0,0 STARLINK-5462,1 55674U 23021AY  23283.09488356  .00000216  00000-0  25881-4 0  9993,2 55674  70.0018 227.1251 0002823 278.2808  81.8031 14.98326406 36930,6950.204,96.107,574.031,570.107,0.0
55674.0,STARLINK-5462,PAYLOAD,2023-10-10 13:29:33,14.98355013,0.0002642,70.002,225.9452,278.3311,81.7549,-0.00048549,-5.884e-05,0.0,0 STARLINK-5462,1 55674U 23021AY  23283.56219585 -.00005884  00000-0 -48549-3 0  9994,2 55674  70.0020 225.9452 0002642 278.3311  81.7549 14.98355013 37302,6950.116,96.105,573.817,570.144,0.0
55674.0,STARLINK-5462,PAYLOAD,2023-10-10 21:30:15,14.98321454,0.0002743,70.0011,225.1043,265.7743,94.3103,-0.0001232,-1.562e-05,0.0,0 STARLINK-5462,1 55674U 23021AY  23283.89601001 -.00001562  00000-0 -12320-3 0  9995,2 55674  70.0011 225.1043 0002743 265.7743  94.3103 14.98321454 37354,6950.219,96.108,573.991,570.178,0.0
55674.0,STARLINK-5462,PAYLOAD,2023-10-11 02:18:39,14.98323583,0.0002915,70.0007,224.5991,272.9092,87.1733,-0.00010353,-1.328e-05,0.0,0 STARLINK-5462,1 55674U 23021AY  23284.09628925 -.00001328  00000-0 -10353-3 0  9996,2 55674  70.0007 224.5991 0002915 272.9092  87.1733 14.98323583 37086,6950.213,96.107,574.104,570.052,0.0
55674.0,STARLINK-5462,PAYLOAD,2023-10-11 13:31:35,14.9832635,0.0002129,70.0028,223.4204,282.0064,78.0856,-0.00012174,-1.545e-05,0.0,0 STARLINK-5462,1 55674U 23021AY  23284.56361103 -.00001545  00000-0 -12174-3 0  9994,2 55674  70.0028 223.4204 0002129 282.0064  78.0856 14.98326350 37453,6950.204,96.107,573.549,570.589,0.0
55674.0,STARLINK-5462,PAYLOAD,2023-10-12 03:56:47,14.98330022,0.0002689,70.0014,221.9062,267.8521,92.233,5.7661e-05,5.95e-06,0.0,0 STARLINK-5462,1 55674U 23021AY  23285.16444382  .00000595  00000-0  57661-4 0  9995,2 55674  70.0014 221.9062 0002689 267.8521  92.2330 14.98330022 37246,6950.193,96.107,573.927,570.189,0.0
55674.0,STARLINK-5462,PAYLOAD,2023-10-12 05:32:55,14.98329963,0.0002659,70.001,221.7369,263.4362,96.6494,8.918e-05,9.71e-06,0.0,0 STARLINK-5462,1 55674U 23021AY  23285.23120282  .00000971  00000-0  89180-4 0  9992,2 55674  70.0010 221.7369 0002659 263.4362  96.6494 14.98329963 37557,6950.193,96.107,573.906,570.21,0.0
55674.0,STARLINK-5462,PAYLOAD,2023-10-12 21:34:16,14.98326628,0.0002847,70.001,220.0545,267.7918,92.2915,0.00013962,1.573e-05,0.0,0 STARLINK-5462,1 55674U 23021AY  23285.89880379  .00001573  00000-0  13962-3 0  9997,2 55674  70.0010 220.0545 0002847 267.7918  92.2915 14.98326628 37654,6950.203,96.107,574.047,570.09,0.0
55674.0,STARLINK-5462,PAYLOAD,2023-10-13 03:58:48,14.983345,0.0002676,70.0016,219.3834,260.7811,99.3046,0.00014676,1.659e-05,0.0,0 STARLINK-5462,1 55674U 23021AY  23286.16583889  .00001659  00000-0  14676-3 0  9992,2 55674  70.0016 219.3834 0002676 260.7811  99.3046 14.98334500 37399,6950.179,96.107,573.904,570.184,0.0
55674.0,STARLINK-5462,PAYLOAD,2023-10-13 13:35:37,14.98332846,0.0002482,70.002,218.3711,269.4942,90.5933,0.00012252,1.369e-05,0.0,0 STARLINK-5462,1 55674U 23021AY  23286.56640071  .00001369  00000-0  12252-3 0  9999,2 55674  70.0020 218.3711 0002482 269.4942  90.5933 14.98332846 37752,6950.184,96.107,573.774,570.324,0.0
55674.0,STARLINK-5462,PAYLOAD,2023-10-13 21:36:17,14.9833375,0.0002782,70.0015,217.5296,268.7052,91.3789,0.00012598,1.411e-05,0.0,0 STARLINK-5462,1 55674U 23021AY  23286.90019827  .00001411  00000-0  12598-3 0  9997,2 55674  70.0015 217.5296 0002782 268.7052  91.3789 14.98333750 37801,6950.181,96.107,573.98,570.113,0.0
55674.0,STARLINK-5462,PAYLOAD,2023-10-14 04:00:48,14.98339853,0.0002626,70.0014,216.8564,264.4481,95.6379,0.00014617,1.652e-05,0.0,0 STARLINK-5462,1 55674U 23021AY  23287.16723275  .00001652  00000-0  14617-3 0  9996,2 55674  70.0014 216.8564 0002626 264.4481  95.6379 14.98339853 37549,6950.162,96.106,573.853,570.202,0.0
55674.0,STARLINK-5462,PAYLOAD,2023-10-14 05:36:56,14.98341794,0.0002621,70.0015,216.6881,264.4814,95.6046,0.00017062,1.944e-05,0.0,0 STARLINK-5462,1 55674U 23021AY  23287.23399052  .00001944  00000-0  17062-3 0  9997,2 55674  70.0015 216.6881 0002621 264.4814  95.6046 14.98341794 37857,6950.156,96.106,573.843,570.2,0.0
55674.0,STARLINK-5462,PAYLOAD,2023-10-14 20:02:11,14.98320586,0.0003005,70.0014,215.1735,264.4869,95.5948,-0.00018157,-2.258e-05,0.0,0 STARLINK-5462,1 55674U 23021AY  23287.83485274 -.00002258  00000-0 -18157-3 0  9992,2 55674  70.0014 215.1735 0003005 264.4869  95.5948 14.98320586 37648,6950.222,96.108,574.176,569.998,0.0
55674.0,STARLINK-5462,PAYLOAD,2023-10-14 21:38:19,14.9831891,0.0003033,70.0014,215.0059,270.741,89.3401,-0.00019601,-2.43e-05,0.0,0 STARLINK-5462,1 55674U 23021AY  23287.90161508 -.00002430  00000-0 -19601-3 0  9998,2 55674  70.0014 215.0059 0003033 270.7410  89.3401 14.98318910 37956,6950.227,96.108,574.2,569.984,0.0
55674.0,STARLINK-5462,PAYLOAD,2023-10-15 05:38:59,14.98320272,0.0002835,70.0013,214.1637,263.3263,96.7574,-0.0001692,-2.111e-05,0.0,0 STARLINK-5462,1 55674U 23021AY  23288.23541492 -.00002111  00000-0 -16920-3 0  9996,2 55674  70.0013 214.1637 0002835 263.3263  96.7574 14.98320272 38004,6950.223,96.108,574.058,570.118,0.0
55674.0,STARLINK-5462,PAYLOAD,2023-10-15 20:04:11,14.98329794,0.0003213,70.0003,212.6483,269.7869,90.2922,-2.6133e-05,-4.05e-06,0.0,0 STARLINK-5462,1 55674U 23021AY  23288.83624557 -.00000405  00000-0 -26133-4 0  9998,2 55674  70.0003 212.6483 0003213 269.7869  90.2922 14.98329794 37797,6950.194,96.107,574.292,569.825,0.0
55674.0,STARLINK-5462,PAYLOAD,2023-10-15 21:40:19,14.98331648,0.0003103,70.0007,212.4798,271.0053,89.075,-2.5752e-05,-4e-06,0.0,0 STARLINK-5462,1 55674U 23021AY  23288.90300479 -.00000400  00000-0 -25752-4 0  9991,2 55674  70.0007 212.4798 0003103 271.0053  89.0750 14.98331648 38109,6950.188,96.107,574.209,569.896,0.0
55674.0,STARLINK-5462,PAYLOAD,2023-10-16 04:04:51,14.98340916,0.0002645,70.0013,211.8078,259.4539,100.6322,6.416e-05,6.73e-06,0.0,0 STARLINK-5462,1 55674U 23021AY  23289.17003572  .00000673  00000-0  64160-4 0  9991,2 55674  70.0013 211.8078 0002645 259.4539 100.6322 14.98340916 37842,6950.159,96.106,573.862,570.186,0.0
55674.0,STARLINK-5462,PAYLOAD,2023-10-16 12:05:31,14.98340953,0.0002869,70.001,210.9674,260.6487,99.4348,-3.1987e-05,-4.75e-06,0.0,0 STARLINK-5462,1 55674U 23021AY  23289.50383631 -.00000475  00000-0 -31987-4 0  9998,2 55674  70.0010 210.9674 0002869 260.6487  99.4348 14.98340953 38198,6950.159,96.106,574.018,570.03,0.0
55674.0,STARLINK-5462,PAYLOAD,2023-10-17 12:07:32,14.98335373,0.0002157,70.0028,208.4414,272.978,87.1132,0.00023823,2.751e-05,0.0,0 STARLINK-5462,1 55674U 23021AY  23290.50523806  .00002751  00000-0  23823-3 0  9996,2 55674  70.0028 208.4414 0002157 272.9780  87.1132 14.98335373 38042,6950.176,96.107,573.54,570.542,0.0
55674.0,STARLINK-5462,PAYLOAD,2023-10-18 02:32:43,14.98356899,0.0002404,70.0021,206.9257,258.2434,101.8456,0.00023708,2.739e-05,0.0,0 STARLINK-5462,1 55674U 23021AY  23291.10605497  .00002739  00000-0  23708-3 0  9998,2 55674  70.0021 206.9257 0002404 258.2434 101.8456 14.98356899 38433,6950.11,96.105,573.646,570.304,0.0
